STARLINK-4052           
1 53171U 22083AR  25334.06797181  .00000890  00000+0  73983-4 0  9998
2 53171  53.2177 221.1025 0001572 102.8156 257.3012 15.08840246186738
STARLINK-4299           
1 53172U 22083AS  25334.15217376 -.00000965  00000+0 -42523-4 0  9993
2 53172  53.2196 245.8733 0001482  82.4023 277.7138 15.08838737186394
STARLINK-4300           
1 53173U 22083AT  25334.10618050 -.00001115  00000+0 -51986-4 0  9994
2 53173  53.2166 226.1581 0001576  85.8701 274.2471 15.08847116186662
STARLINK-4205           
1 53174U 22083AU  25334.06159398 -.00000524  00000+0 -14859-4 0  9996
2 53174  53.2169 261.3009 0001327  71.5261 288.5875 15.08834967186171
STARLINK-4292           
1 53175U 22083AV  25334.06432235 -.00000088  00000+0  12555-4 0  9996
2 53175  53.2171 261.3551 0001411 101.8224 258.2927 15.08838963186179
STARLINK-4294           
1 53176U 22083AW  25334.13468559  .00001448  00000+0  10905-3 0  9999
2 53176  53.2169 235.9513 0001643  87.8075 272.3105 15.08846905186536
STARLINK-4298           
1 53177U 22083AX  25334.09882190 -.00000598  00000+0 -19468-4 0  9997
2 53177  53.2158 226.1925 0001442  88.4427 271.6730 15.08841320186665
STARLINK-4280           
1 53178U 22083AY  25334.05787821 -.00003096  00000+0 -17643-3 0  9997
2 53178  53.2165 251.3830 0001510  91.0945 269.0221 15.08854349186302
STARLINK-4276           
1 53179U 22083AZ  25333.91799459  .00000601  00000+0  55860-4 0  9993
2 53179  53.2169 211.6130 0001367 103.1536 256.9609 15.08838600186857
STARLINK-4258           
1 53180U 22083BA  25334.07626538 -.00000488  00000+0 -12580-4 0  9997
2 53180  53.2159 211.1728 0001627  92.8533 267.2645 15.08839624186870
STARLINK-4278           
1 53182U 22083BC  25334.02890441 -.00000306  00000+0 -11466-5 0  9992
2 53182  53.2168 226.5069 0001526  87.0355 273.0812 15.08839328186654
STARLINK-4268           
1 53183U 22083BD  25333.97093279  .00000009  00000+0  18710-4 0  9996
2 53183  53.2169 216.6875 0002377  94.3250 265.8014 15.08838732186786
STARLINK-4257           
1 53184U 22083BE  25334.04679975  .00000735  00000+0  64324-4 0  9997
2 53184  53.2161 211.0215 0001447  97.2682 262.8475 15.08821683186880
STARLINK-4391           
1 53189U 22084A   25334.13561102  .00000200  00000+0  18069-4 0  9997
2 53189  97.6040  33.0395 0001109 101.2754 258.8597 15.05647612185070
STARLINK-4332           
1 53190U 22084B   25334.14945919 -.00000380  00000+0 -22148-4 0  9996
2 53190  97.6033  33.0912 0001049  93.3523 266.7824 15.05645423185076
STARLINK-4369           
1 53191U 22084C   25334.13020281  .00000488  00000+0  42565-4 0  9994
2 53191  97.6051  32.7269 0001631 184.2672 175.8538 15.01263257184371
STARLINK-4375           
1 53192U 22084D   25334.11346068  .00000450  00000+0  35434-4 0  9993
2 53192  97.6057  33.0501 0001067 101.2387 258.8960 15.05647718185066
