[{"OBJECT_NAME":"STARLINK-4052","OBJECT_ID":"2022-083AR","EPOCH":"2025-11-30T01:37:52.764384","MEAN_MOTION":15.08840246,"ECCENTRICITY":0.0001572,"INCLINATION":53.2177,"RA_OF_ASC_NODE":221.1025,"ARG_OF_PERICENTER":102.8156,"MEAN_ANOMALY":257.3012,"EPHEMERIS_TYPE":0,"CLASSIFICATION_TYPE":"U","NORAD_CAT_ID":53171,"ELEMENT_SET_NO":999,"REV_AT_EPOCH":18673,"BSTAR":7.3983e-5,"MEAN_MOTION_DOT":8.9e-6,"MEAN_MOTION_DDOT":0},{"OBJECT_NAME":"STARLINK-4299","OBJECT_ID":"2022-083AS","EPOCH":"2025-11-30T03:39:07.812864","MEAN_MOTION":15.08838737,"ECCENTRICITY":0.0001482,"INCLINATION":53.2196,"RA_OF_ASC_NODE":245.8733,"ARG_OF_PERICENTER":82.4023,"MEAN_ANOMALY":277.7138,"EPHEMERIS_TYPE":0,"CLASSIFICATION_TYPE":"U","NORAD_CAT_ID":53172,"ELEMENT_SET_NO":999,"REV_AT_EPOCH":18639,"BSTAR":-4.2523e-5,"MEAN_MOTION_DOT":-9.65e-6,"MEAN_MOTION_DDOT":0},{"OBJECT_NAME":"STARLINK-4300","OBJECT_ID":"2022-083AT","EPOCH":"2025-11-30T02:32:53.995200","MEAN_MOTION":15.08847116,"ECCENTRICITY":0.0001576,"INCLINATION":53.2166,"RA_OF_ASC_NODE":226.1581,"ARG_OF_PERICENTER":85.8701,"MEAN_ANOMALY":274.2471,"EPHEMERIS_TYPE":0,"CLASSIFICATION_TYPE":"U","NORAD_CAT_ID":53173,"ELEMENT_SET_NO":999,"REV_AT_EPOCH":18666,"BSTAR":-5.1986e-5,"MEAN_MOTION_DOT":-1.115e-5,"MEAN_MOTION_DDOT":0},{"OBJECT_NAME":"STARLINK-4205","OBJECT_ID":"2022-083AU","EPOCH":"2025-11-30T01:28:41.719872","MEAN_MOTION":15.08834967,"ECCENTRICITY":0.0001327,"INCLINATION":53.2169,"RA_OF_ASC_NODE":261.3009,"ARG_OF_PERICENTER":71.5261,"MEAN_ANOMALY":288.5875,"EPHEMERIS_TYPE":0,"CLASSIFICATION_TYPE":"U","NORAD_CAT_ID":53174,"ELEMENT_SET_NO":999,"REV_AT_EPOCH":18617,"BSTAR":-1.4859e-5,"MEAN_MOTION_DOT":-5.24e-6,"MEAN_MOTION_DDOT":0},{"OBJECT_NAME":"STARLINK-4292","OBJECT_ID":"2022-083AV","EPOCH":"2025-11-30T01:32:37.451040","MEAN_MOTION":15.08838963,"ECCENTRICITY":0.0001411,"INCLINATION":53.2171,"RA_OF_ASC_NODE":261.3551,"ARG_OF_PERICENTER":101.8224,"MEAN_ANOMALY":258.2927,"EPHEMERIS_TYPE":0,"CLASSIFICATION_TYPE":"U","NORAD_CAT_ID":53175,"ELEMENT_SET_NO":999,"REV_AT_EPOCH":18617,"BSTAR":1.2555e-5,"MEAN_MOTION_DOT":-8.8e-7,"MEAN_MOTION_DDOT":0},{"OBJECT_NAME":"STARLINK-4294","OBJECT_ID":"2022-083AW","EPOCH":"2025-11-30T03:13:56.834976","MEAN_MOTION":15.08846905,"ECCENTRICITY":0.0001643,"INCLINATION":53.2169,"RA_OF_ASC_NODE":235.9513,"ARG_OF_PERICENTER":87.8075,"MEAN_ANOMALY":272.3105,"EPHEMERIS_TYPE":0,"CLASSIFICATION_TYPE":"U","NORAD_CAT_ID":53176,"ELEMENT_SET_NO":999,"REV_AT_EPOCH":18653,"BSTAR":0.00010905,"MEAN_MOTION_DOT":1.448e-5,"MEAN_MOTION_DDOT":0},{"OBJECT_NAME":"STARLINK-4298","OBJECT_ID":"2022-083AX","EPOCH":"2025-11-30T02:22:18.212160","MEAN_MOTION":15.0884132,"ECCENTRICITY":0.0001442,"INCLINATION":53.2158,"RA_OF_ASC_NODE":226.1925,"ARG_OF_PERICENTER":88.4427,"MEAN_ANOMALY":271.673,"EPHEMERIS_TYPE":0,"CLASSIFICATION_TYPE":"U","NORAD_CAT_ID":53177,"ELEMENT_SET_NO":999,"REV_AT_EPOCH":18666,"BSTAR":-1.9468e-5,"MEAN_MOTION_DOT":-5.98e-6,"MEAN_MOTION_DDOT":0},{"OBJECT_NAME":"STARLINK-4280","OBJECT_ID":"2022-083AY","EPOCH":"2025-11-30T01:23:20.677344","MEAN_MOTION":15.08854349,"ECCENTRICITY":0.000151,"INCLINATION":53.2165,"RA_OF_ASC_NODE":251.383,"ARG_OF_PERICENTER":91.0945,"MEAN_ANOMALY":269.0221,"EPHEMERIS_TYPE":0,"CLASSIFICATION_TYPE":"U","NORAD_CAT_ID":53178,"ELEMENT_SET_NO":999,"REV_AT_EPOCH":18630,"BSTAR":-0.00017643,"MEAN_MOTION_DOT":-3.096e-5,"MEAN_MOTION_DDOT":0},{"OBJECT_NAME":"STARLINK-4276","OBJECT_ID":"2022-083AZ","EPOCH":"2025-11-29T22:01:54.732576","MEAN_MOTION":15.088386,"ECCENTRICITY":0.0001367,"INCLINATION":53.2169,"RA_OF_ASC_NODE":211.613,"ARG_OF_PERICENTER":103.1536,"MEAN_ANOMALY":256.9609,"EPHEMERIS_TYPE":0,"CLASSIFICATION_TYPE":"U","NORAD_CAT_ID":53179,"ELEMENT_SET_NO":999,"REV_AT_EPOCH":18685,"BSTAR":5.586e-5,"MEAN_MOTION_DOT":6.01e-6,"MEAN_MOTION_DDOT":0},{"OBJECT_NAME":"STARLINK-4258","OBJECT_ID":"2022-083BA","EPOCH":"2025-11-30T01:49:49.328832","MEAN_MOTION":15.08839624,"ECCENTRICITY":0.0001627,"INCLINATION":53.2159,"RA_OF_ASC_NODE":211.1728,"ARG_OF_PERICENTER":92.8533,"MEAN_ANOMALY":267.2645,"EPHEMERIS_TYPE":0,"CLASSIFICATION_TYPE":"U","NORAD_CAT_ID":53180,"ELEMENT_SET_NO":999,"REV_AT_EPOCH":18687,"BSTAR":-1.258e-5,"MEAN_MOTION_DOT":-4.88e-6,"MEAN_MOTION_DDOT":0},{"OBJECT_NAME":"STARLINK-4278","OBJECT_ID":"2022-083BC","EPOCH":"2025-11-30T00:41:37.341024","MEAN_MOTION":15.08839328,"ECCENTRICITY":0.0001526,"INCLINATION":53.2168,"RA_OF_ASC_NODE":226.5069,"ARG_OF_PERICENTER":87.0355,"MEAN_ANOMALY":273.0812,"EPHEMERIS_TYPE":0,"CLASSIFICATION_TYPE":"U","NORAD_CAT_ID":53182,"ELEMENT_SET_NO":999,"REV_AT_EPOCH":18665,"BSTAR":-1.1466e-6,"MEAN_MOTION_DOT":-3.06e-6,"MEAN_MOTION_DDOT":0},{"OBJECT_NAME":"STARLINK-4268","OBJECT_ID":"2022-083BD","EPOCH":"2025-11-29T23:18:08.593056","MEAN_MOTION":15.08838732,"ECCENTRICITY":0.0002377,"INCLINATION":53.2169,"RA_OF_ASC_NODE":216.6875,"ARG_OF_PERICENTER":94.325,"MEAN_ANOMALY":265.8014,"EPHEMERIS_TYPE":0,"CLASSIFICATION_TYPE":"U","NORAD_CAT_ID":53183,"ELEMENT_SET_NO":999,"REV_AT_EPOCH":18678,"BSTAR":1.871e-5,"MEAN_MOTION_DOT":9.0e-8,"MEAN_MOTION_DDOT":0},{"OBJECT_NAME":"STARLINK-4257","OBJECT_ID":"2022-083BE","EPOCH":"2025-11-30T01:07:23.498400","MEAN_MOTION":15.08821683,"ECCENTRICITY":0.0001447,"INCLINATION":53.2161,"RA_OF_ASC_NODE":211.0215,"ARG_OF_PERICENTER":97.2682,"MEAN_ANOMALY":262.8475,"EPHEMERIS_TYPE":0,"CLASSIFICATION_TYPE":"U","NORAD_CAT_ID":53184,"ELEMENT_SET_NO":999,"REV_AT_EPOCH":18688,"BSTAR":6.4324e-5,"MEAN_MOTION_DOT":7.35e-6,"MEAN_MOTION_DDOT":0},{"OBJECT_NAME":"STARLINK-4391","OBJECT_ID":"2022-084A","EPOCH":"2025-11-30T03:15:16.792128","MEAN_MOTION":15.05647612,"ECCENTRICITY":0.0001109,"INCLINATION":97.604,"RA_OF_ASC_NODE":33.0395,"ARG_OF_PERICENTER":101.2754,"MEAN_ANOMALY":258.8597,"EPHEMERIS_TYPE":0,"CLASSIFICATION_TYPE":"U","NORAD_CAT_ID":53189,"ELEMENT_SET_NO":999,"REV_AT_EPOCH":18507,"BSTAR":1.8069e-5,"MEAN_MOTION_DOT":2.0e-6,"MEAN_MOTION_DDOT":0},{"OBJECT_NAME":"STARLINK-4332","OBJECT_ID":"2022-084B","EPOCH":"2025-11-30T03:35:13.274016","MEAN_MOTION":15.05645423,"ECCENTRICITY":0.0001049,"INCLINATION":97.6033,"RA_OF_ASC_NODE":33.0912,"ARG_OF_PERICENTER":93.3523,"MEAN_ANOMALY":266.7824,"EPHEMERIS_TYPE":0,"CLASSIFICATION_TYPE":"U","NORAD_CAT_ID":53190,"ELEMENT_SET_NO":999,"REV_AT_EPOCH":18507,"BSTAR":-2.2148e-5,"MEAN_MOTION_DOT":-3.8e-6,"MEAN_MOTION_DDOT":0},{"OBJECT_NAME":"STARLINK-4369","OBJECT_ID":"2022-084C","EPOCH":"2025-11-30T03:07:29.522784","MEAN_MOTION":15.01263257,"ECCENTRICITY":0.0001631,"INCLINATION":97.6051,"RA_OF_ASC_NODE":32.7269,"ARG_OF_PERICENTER":184.2672,"MEAN_ANOMALY":175.8538,"EPHEMERIS_TYPE":0,"CLASSIFICATION_TYPE":"U","NORAD_CAT_ID":53191,"ELEMENT_SET_NO":999,"REV_AT_EPOCH":18437,"BSTAR":4.2565e-5,"MEAN_MOTION_DOT":4.88e-6,"MEAN_MOTION_DDOT":0},{"OBJECT_NAME":"STARLINK-4375","OBJECT_ID":"2022-084D","EPOCH":"2025-11-30T02:43:23.002752","MEAN_MOTION":15.05647718,"ECCENTRICITY":0.0001067,"INCLINATION":97.6057,"RA_OF_ASC_NODE":33.0501,"ARG_OF_PERICENTER":101.2387,"MEAN_ANOMALY":258.896,"EPHEMERIS_TYPE":0,"CLASSIFICATION_TYPE":"U","NORAD_CAT_ID":53192,"ELEMENT_SET_NO":999,"REV_AT_EPOCH":18506,"BSTAR":3.5434e-5,"MEAN_MOTION_DOT":4.5e-6,"MEAN_MOTION_DDOT":0}]
